start=new Date('2022-02-22T00:00:00.000Z').valueOf();
sats=[{"TLE_LINE2":"2 49769  53.2172 295.8179 0003934   8.1826 305.4413 15.40443849  3614","COUNTRY_CODE":"US","CENTER_NAME":"EARTH","INCLINATION":"53.2172","FILE":"3312023","MEAN_ELEMENT_THEORY":"SGP4","RA_OF_ASC_NODE":"295.8179","MEAN_MOTION_DOT":"0.00012449","PERIOD":"93.480","EPOCH":"2022-02-21T22:00:00.999936","MEAN_MOTION":"15.40443849","RCS_SIZE":"LARGE","APOAPSIS":"447.485","EPHEMERIS_TYPE":"0","NORAD_CAT_ID":"49769","DECAY_DATE":null,"CLASSIFICATION_TYPE":"U","BSTAR":"0.00031218000000","SITE":"AFETR","TLE_LINE1":"1 49769U 21115AX  22052.91667824  .00012449  00000-0  31218-3 0  9997","ARG_OF_PERICENTER":"8.1826","OBJECT_TYPE":"PAYLOAD","REF_FRAME":"TEME","PERIAPSIS":"442.116","MEAN_MOTION_DDOT":"0.0000000000000","ECCENTRICITY":"0.00039340","GP_ID":"196575233","MEAN_ANOMALY":"305.4413","SEMIMAJOR_AXIS":"6822.935","TIME_SYSTEM":"UTC","OBJECT_ID":"2021-115AX","LAUNCH_DATE":"2021-12-02","REV_AT_EPOCH":"361","OBJECT_NAME":"STARLINK-3208","ELEMENT_SET_NO":"999"},{"PERIOD":"93.480","EPOCH":"2022-02-21T22:00:00.999936","MEAN_MOTION":"15.40434611","RCS_SIZE":"LARGE","COUNTRY_CODE":"US","CENTER_NAME":"EARTH","TLE_LINE2":"2 49770  53.2168 295.8181 0003342  13.9889 297.5387 15.40434611 13743","RA_OF_ASC_NODE":"295.8181","MEAN_MOTION_DOT":"0.00011541","MEAN_ELEMENT_THEORY":"SGP4","INCLINATION":"53.2168","FILE":"3311960","GP_ID":"196550224","ELEMENT_SET_NO":"999","LAUNCH_DATE":"2021-12-02","REV_AT_EPOCH":"1374","OBJECT_NAME":"STARLINK-3191","SEMIMAJOR_AXIS":"6822.963","TIME_SYSTEM":"UTC","OBJECT_ID":"2021-115AY","MEAN_ANOMALY":"297.5387","ARG_OF_PERICENTER":"13.9889","TLE_LINE1":"1 49770U 21115AY  22052.91667824  .00011541  00000-0  29026-3 0  9995","SITE":"AFETR","DECAY_DATE":null,"NORAD_CAT_ID":"49770","BSTAR":"0.00029026000000","CLASSIFICATION_TYPE":"U","APOAPSIS":"447.108","EPHEMERIS_TYPE":"0","ECCENTRICITY":"0.00033420","MEAN_MOTION_DDOT":"0.0000000000000","PERIAPSIS":"442.547","REF_FRAME":"TEME","OBJECT_TYPE":"PAYLOAD"},{"RCS_SIZE":"LARGE","MEAN_MOTION":"15.40438013","PERIOD":"93.480","EPOCH":"2022-02-21T22:00:00.999936","MEAN_MOTION_DOT":"0.00012568","RA_OF_ASC_NODE":"295.8241","MEAN_ELEMENT_THEORY":"SGP4","FILE":"3311957","INCLINATION":"53.2172","CENTER_NAME":"EARTH","COUNTRY_CODE":"US","TLE_LINE2":"2 49771  53.2172 295.8241 0002917  15.8281 294.6919 15.40438013 13749","ELEMENT_SET_NO":"999","OBJECT_NAME":"STARLINK-3201","REV_AT_EPOCH":"1374","LAUNCH_DATE":"2021-12-02","OBJECT_ID":"2021-115AZ","TIME_SYSTEM":"UTC","SEMIMAJOR_AXIS":"6822.953","MEAN_ANOMALY":"294.6919","GP_ID":"196550197","ECCENTRICITY":"0.00029170","MEAN_MOTION_DDOT":"0.0000000000000","PERIAPSIS":"442.827","REF_FRAME":"TEME","OBJECT_TYPE":"PAYLOAD","ARG_OF_PERICENTER":"15.8281","TLE_LINE1":"1 49771U 21115AZ  22052.91667824  .00012568  00000-0  31515-3 0  9992","SITE":"AFETR","BSTAR":"0.00031515000000","CLASSIFICATION_TYPE":"U","DECAY_DATE":null,"NORAD_CAT_ID":"49771","EPHEMERIS_TYPE":"0","APOAPSIS":"446.808"},{"RCS_SIZE":"LARGE","EPOCH":"2022-02-21T22:00:00.999936","PERIOD":"92.929","MEAN_MOTION":"15.49569849","MEAN_ELEMENT_THEORY":"SGP4","INCLINATION":"53.2173","FILE":"3311975","RA_OF_ASC_NODE":"43.8493","MEAN_MOTION_DOT":"-0.00366556","CENTER_NAME":"EARTH","COUNTRY_CODE":"US","TLE_LINE2":"2 50156  53.2173  43.8493 0001999  27.2014  68.5208 15.49569849 13097","SEMIMAJOR_AXIS":"6796.120","TIME_SYSTEM":"UTC","OBJECT_ID":"2021-125A","MEAN_ANOMALY":"68.5208","ELEMENT_SET_NO":"999","LAUNCH_DATE":"2021-12-18","REV_AT_EPOCH":"1309","OBJECT_NAME":"STARLINK-3317","GP_ID":"196550308","PERIAPSIS":"416.627","OBJECT_TYPE":"PAYLOAD","REF_FRAME":"TEME","ECCENTRICITY":"0.00019990","MEAN_MOTION_DDOT":"0.0000000000000","DECAY_DATE":null,"NORAD_CAT_ID":"50156","BSTAR":"-0.00683230000000","CLASSIFICATION_TYPE":"U","EPHEMERIS_TYPE":"0","APOAPSIS":"419.344","ARG_OF_PERICENTER":"27.2014","SITE":"AFWTR","TLE_LINE1":"1 50156U 21125A   22052.91667824 -.00366556  00000-0 -68323-2 0  9999"},{"REF_FRAME":"TEME","OBJECT_TYPE":"PAYLOAD","PERIAPSIS":"502.530","MEAN_MOTION_DDOT":"0.0000000000000","ECCENTRICITY":"0.00016850","EPHEMERIS_TYPE":"0","APOAPSIS":"504.849","NORAD_CAT_ID":"50157","DECAY_DATE":null,"CLASSIFICATION_TYPE":"U","BSTAR":"-0.02678100000000","TLE_LINE1":"1 50157U 21125B   22052.91667824 -.00559432  00000-0 -26781-1 0  9998","SITE":"AFWTR","ARG_OF_PERICENTER":"38.5361","MEAN_ANOMALY":"300.4110","SEMIMAJOR_AXIS":"6881.825","TIME_SYSTEM":"UTC","OBJECT_ID":"2021-125B","LAUNCH_DATE":"2021-12-18","OBJECT_NAME":"STARLINK-3313","REV_AT_EPOCH":"361","ELEMENT_SET_NO":"999","GP_ID":"196574018","INCLINATION":"53.2178","FILE":"3312023","MEAN_ELEMENT_THEORY":"SGP4","RA_OF_ASC_NODE":"48.9851","MEAN_MOTION_DOT":"-0.00559432","TLE_LINE2":"2 50157  53.2178  48.9851 0001685  38.5361 300.4110 15.20713323  3613","COUNTRY_CODE":"US","CENTER_NAME":"EARTH","RCS_SIZE":"LARGE","EPOCH":"2022-02-21T22:00:00.999936","PERIOD":"94.692","MEAN_MOTION":"15.20713323"},{"PERIOD":"94.674","EPOCH":"2022-02-21T22:00:00.999936","MEAN_MOTION":"15.21001871","RCS_SIZE":"LARGE","CENTER_NAME":"EARTH","COUNTRY_CODE":"US","TLE_LINE2":"2 50158  53.2177  48.9847 0001627  33.1366 355.0774 15.21001871  3611","RA_OF_ASC_NODE":"48.9847","MEAN_MOTION_DOT":"-0.00479931","MEAN_ELEMENT_THEORY":"SGP4","INCLINATION":"53.2177","FILE":"3312023","GP_ID":"196574267","ELEMENT_SET_NO":"999","LAUNCH_DATE":"2021-12-18","REV_AT_EPOCH":"361","OBJECT_NAME":"STARLINK-3309","SEMIMAJOR_AXIS":"6880.954","OBJECT_ID":"2021-125C","TIME_SYSTEM":"UTC","MEAN_ANOMALY":"355.0774","ARG_OF_PERICENTER":"33.1366","TLE_LINE1":"1 50158U 21125C   22052.91667824 -.00479931  00000-0 -22795-1 0  9995","SITE":"AFWTR","DECAY_DATE":null,"NORAD_CAT_ID":"50158","BSTAR":"-0.02279500000000","CLASSIFICATION_TYPE":"U","EPHEMERIS_TYPE":"0","APOAPSIS":"503.939","ECCENTRICITY":"0.00016270","MEAN_MOTION_DDOT":"0.0000000000000","PERIAPSIS":"501.700","REF_FRAME":"TEME","OBJECT_TYPE":"PAYLOAD"},{"RCS_SIZE":"LARGE","MEAN_MOTION":"15.21151484","EPOCH":"2022-02-21T22:00:00.999936","PERIOD":"94.665","MEAN_MOTION_DOT":"-0.00531428","RA_OF_ASC_NODE":"48.9839","FILE":"3311969","INCLINATION":"53.2177","MEAN_ELEMENT_THEORY":"SGP4","TLE_LINE2":"2 50159  53.2177  48.9839 0001672  28.0032  16.5362 15.21151484  9968","CENTER_NAME":"EARTH","COUNTRY_CODE":"US","REV_AT_EPOCH":"996","OBJECT_NAME":"STARLINK-3297","LAUNCH_DATE":"2021-12-18","ELEMENT_SET_NO":"999","MEAN_ANOMALY":"16.5362","TIME_SYSTEM":"UTC","OBJECT_ID":"2021-125D","SEMIMAJOR_AXIS":"6880.503","GP_ID":"196550370","MEAN_MOTION_DDOT":"0.0000000000000","ECCENTRICITY":"0.00016720","OBJECT_TYPE":"PAYLOAD","REF_FRAME":"TEME","PERIAPSIS":"501.218","SITE":"AFWTR","TLE_LINE1":"1 50159U 21125D   22052.91667824 -.00531428  00000-0 -25033-1 0  9994","ARG_OF_PERICENTER":"28.0032","EPHEMERIS_TYPE":"0","APOAPSIS":"503.519","BSTAR":"-0.02503300000000","CLASSIFICATION_TYPE":"U","DECAY_DATE":null,"NORAD_CAT_ID":"50159"},{"COUNTRY_CODE":"US","CENTER_NAME":"EARTH","TLE_LINE2":"2 50160  53.2175  48.9849 0001562  28.0999 343.7282 15.20902154  3618","MEAN_ELEMENT_THEORY":"SGP4","INCLINATION":"53.2175","FILE":"3312023","RA_OF_ASC_NODE":"48.9849","MEAN_MOTION_DOT":"-0.00500435","PERIOD":"94.681","EPOCH":"2022-02-21T22:00:00.999936","MEAN_MOTION":"15.20902154","RCS_SIZE":"LARGE","DECAY_DATE":null,"NORAD_CAT_ID":"50160","BSTAR":"-0.02390600000000","CLASSIFICATION_TYPE":"U","APOAPSIS":"504.195","EPHEMERIS_TYPE":"0","ARG_OF_PERICENTER":"28.0999","SITE":"AFWTR","TLE_LINE1":"1 50160U 21125E   22052.91667824 -.00500435  00000-0 -23906-1 0  9997","PERIAPSIS":"502.045","OBJECT_TYPE":"PAYLOAD","REF_FRAME":"TEME","ECCENTRICITY":"0.00015620","MEAN_MOTION_DDOT":"0.0000000000000","GP_ID":"196574771","SEMIMAJOR_AXIS":"6881.255","OBJECT_ID":"2021-125E","TIME_SYSTEM":"UTC","MEAN_ANOMALY":"343.7282","ELEMENT_SET_NO":"999","LAUNCH_DATE":"2021-12-18","REV_AT_EPOCH":"361","OBJECT_NAME":"STARLINK-3288"},{"RCS_SIZE":"LARGE","PERIOD":"94.686","EPOCH":"2022-02-21T22:00:00.999936","MEAN_MOTION":"15.20822790","MEAN_ELEMENT_THEORY":"SGP4","INCLINATION":"53.2178","FILE":"3311965","RA_OF_ASC_NODE":"48.9854","MEAN_MOTION_DOT":"-0.00555075","COUNTRY_CODE":"US","CENTER_NAME":"EARTH","TLE_LINE2":"2 50161  53.2178  48.9854 0001609  19.4069 335.9912 15.20822790 13028","SEMIMAJOR_AXIS":"6881.494","OBJECT_ID":"2021-125F","TIME_SYSTEM":"UTC","MEAN_ANOMALY":"335.9912","ELEMENT_SET_NO":"999","LAUNCH_DATE":"2021-12-18","OBJECT_NAME":"STARLINK-3304","REV_AT_EPOCH":"1302","GP_ID":"196550293","PERIAPSIS":"502.252","OBJECT_TYPE":"PAYLOAD","REF_FRAME":"TEME","ECCENTRICITY":"0.00016090","MEAN_MOTION_DDOT":"0.0000000000000","NORAD_CAT_ID":"50161","DECAY_DATE":null,"BSTAR":"-0.02647400000000","CLASSIFICATION_TYPE":"U","APOAPSIS":"504.467","EPHEMERIS_TYPE":"0","ARG_OF_PERICENTER":"19.4069","SITE":"AFWTR","TLE_LINE1":"1 50161U 21125F   22052.91667824 -.00555075  00000-0 -26474-1 0  9991"},{"MEAN_ANOMALY":"262.9736","TIME_SYSTEM":"UTC","OBJECT_ID":"2021-125G","SEMIMAJOR_AXIS":"6704.694","REV_AT_EPOCH":"368","OBJECT_NAME":"STARLINK-3303","LAUNCH_DATE":"2021-12-18","ELEMENT_SET_NO":"999","GP_ID":"196573767","REF_FRAME":"TEME","OBJECT_TYPE":"PAYLOAD","PERIAPSIS":"322.533","MEAN_MOTION_DDOT":"0.0000000000000","ECCENTRICITY":"0.00060050","APOAPSIS":"330.586","EPHEMERIS_TYPE":"0","CLASSIFICATION_TYPE":"U","BSTAR":"0.00051534000000","NORAD_CAT_ID":"50162","DECAY_DATE":null,"SITE":"AFWTR","TLE_LINE1":"1 50162U 21125G   22052.91667824  .00104751  00000-0  51534-3 0  9998","ARG_OF_PERICENTER":"69.9340","RCS_SIZE":"LARGE","MEAN_MOTION":"15.81372837","PERIOD":"91.060","EPOCH":"2022-02-21T22:00:00.999936","FILE":"3312023","INCLINATION":"53.2182","MEAN_ELEMENT_THEORY":"SGP4","MEAN_MOTION_DOT":"0.00104751","RA_OF_ASC_NODE":"40.4444","TLE_LINE2":"2 50162  53.2182  40.4444 0006005  69.9340 262.9736 15.81372837  3686","COUNTRY_CODE":"US","CENTER_NAME":"EARTH"}];
